[{"OBJECT_NAME":"KUIPER-00147","OBJECT_ID":"2025-217G","EPOCH":"2026-03-09T07:32:50.582976","MEAN_MOTION":14.79937962,"ECCENTRICITY":4.753e-5,"INCLINATION":51.8994,"RA_OF_ASC_NODE":42.2587,"ARG_OF_PERICENTER":107.8804,"MEAN_ANOMALY":252.2211,"EPHEMERIS_TYPE":0,"CLASSIFICATION_TYPE":"U","NORAD_CAT_ID":65768,"ELEMENT_SET_NO":999,"REV_AT_EPOCH":2485,"BSTAR":2.5065127e-5,"MEAN_MOTION_DOT":-3.0e-7,"MEAN_MOTION_DDOT":0},{"OBJECT_NAME":"FENGYUN 1C DEB","OBJECT_ID":"1999-025AMF","EPOCH":"2026-03-09T13:20:52.013184","MEAN_MOTION":14.09235763,"ECCENTRICITY":0.0325569,"INCLINATION":98.3906,"RA_OF_ASC_NODE":12.3913,"ARG_OF_PERICENTER":359.2837,"MEAN_ANOMALY":0.7827,"EPHEMERIS_TYPE":0,"CLASSIFICATION_TYPE":"U","NORAD_CAT_ID":30600,"ELEMENT_SET_NO":999,"REV_AT_EPOCH":95654,"BSTAR":0.0059642,"MEAN_MOTION_DOT":0.00016954,"MEAN_MOTION_DDOT":0}]
